[
  {
    "COMMENT": "GENERATED VIA SPACETRACK.ORG API",
    "ORIGINATOR": "18 SPCS",
    "NORAD_CAT_ID": "33105",
    "OBJECT_NAME": "JASON 2",
    "OBJECT_TYPE": "PAYLOAD",
    "CLASSIFICATION_TYPE": "U",
    "INTLDES": "08032A",
    "EPOCH": "2023-08-28 20:23:57",
    "EPOCH_MICROSECONDS": "33888",
    "MEAN_MOTION": "12.87661955",
    "ECCENTRICITY": "0.0008013",
    "INCLINATION": "66.0399",
    "RA_OF_ASC_NODE": "42.6597",
    "ARG_OF_PERICENTER": "266.8669",
    "MEAN_ANOMALY": "194.2044",
    "EPHEMERIS_TYPE": "0",
    "ELEMENT_SET_NO": "999",
    "REV_AT_EPOCH": "71194",
    "BSTAR": "-0.000042982",
    "MEAN_MOTION_DOT": "-0.00000073",
    "MEAN_MOTION_DDOT": "0",
    "FILE": "3991628",
    "TLE_LINE0": "0 JASON 2",
    "TLE_LINE1": "1 33105U 08032A   23240.84996567 -.00000073  00000-0 -42982-4 0  9991",
    "TLE_LINE2": "2 33105  66.0399  42.6597 0008013 266.8669 194.2044 12.87661955711941",
    "OBJECT_ID": "2008-032A",
    "OBJECT_NUMBER": "33105",
    "SEMIMAJOR_AXIS": "7688.954",
    "PERIOD": "111.831",
    "APOGEE": "1316.980",
    "PERIGEE": "1304.658",
    "DECAYED": "0"
  },
  {
    "COMMENT": "GENERATED VIA SPACETRACK.ORG API",
    "ORIGINATOR": "18 SPCS",
    "NORAD_CAT_ID": "33105",
    "OBJECT_NAME": "JASON 2",
    "OBJECT_TYPE": "PAYLOAD",
    "CLASSIFICATION_TYPE": "U",
    "INTLDES": "08032A",
    "EPOCH": "2023-08-29 18:44:10",
    "EPOCH_MICROSECONDS": "550688",
    "MEAN_MOTION": "12.87661875",
    "ECCENTRICITY": "0.0007988",
    "INCLINATION": "66.04",
    "RA_OF_ASC_NODE": "40.7027",
    "ARG_OF_PERICENTER": "266.7872",
    "MEAN_ANOMALY": "188.2509",
    "EPHEMERIS_TYPE": "0",
    "ELEMENT_SET_NO": "999",
    "REV_AT_EPOCH": "71206",
    "BSTAR": "-0.00006576",
    "MEAN_MOTION_DOT": "-0.00000079",
    "MEAN_MOTION_DDOT": "0",
    "FILE": "3992439",
    "TLE_LINE0": "0 JASON 2",
    "TLE_LINE1": "1 33105U 08032A   23241.78067767 -.00000079  00000-0 -65760-4 0  9991",
    "TLE_LINE2": "2 33105  66.0400  40.7027 0007988 266.7872 188.2509 12.87661875712060",
    "OBJECT_ID": "2008-032A",
    "OBJECT_NUMBER": "33105",
    "SEMIMAJOR_AXIS": "7688.954",
    "PERIOD": "111.831",
    "APOGEE": "1316.961",
    "PERIGEE": "1304.677",
    "DECAYED": "0"
  },
  {
    "COMMENT": "GENERATED VIA SPACETRACK.ORG API",
    "ORIGINATOR": "18 SPCS",
    "NORAD_CAT_ID": "33105",
    "OBJECT_NAME": "JASON 2",
    "OBJECT_TYPE": "PAYLOAD",
    "CLASSIFICATION_TYPE": "U",
    "INTLDES": "08032A",
    "EPOCH": "2023-08-30 17:02:27",
    "EPOCH_MICROSECONDS": "886272",
    "MEAN_MOTION": "12.87661832",
    "ECCENTRICITY": "0.0007988",
    "INCLINATION": "66.0402",
    "RA_OF_ASC_NODE": "38.7485",
    "ARG_OF_PERICENTER": "266.6963",
    "MEAN_ANOMALY": "176.0756",
    "EPHEMERIS_TYPE": "0",
    "ELEMENT_SET_NO": "999",
    "REV_AT_EPOCH": "71227",
    "BSTAR": "-0.000082196",
    "MEAN_MOTION_DOT": "-0.00000083",
    "MEAN_MOTION_DDOT": "0",
    "FILE": "3993097",
    "TLE_LINE0": "0 JASON 2",
    "TLE_LINE1": "1 33105U 08032A   23242.71004498 -.00000083  00000-0 -82196-4 0  9994",
    "TLE_LINE2": "2 33105  66.0402  38.7485 0007988 266.6963 176.0756 12.87661832712272",
    "OBJECT_ID": "2008-032A",
    "OBJECT_NUMBER": "33105",
    "SEMIMAJOR_AXIS": "7688.955",
    "PERIOD": "111.831",
    "APOGEE": "1316.961",
    "PERIGEE": "1304.678",
    "DECAYED": "0"
  },
  {
    "COMMENT": "GENERATED VIA SPACETRACK.ORG API",
    "ORIGINATOR": "18 SPCS",
    "NORAD_CAT_ID": "33105",
    "OBJECT_NAME": "JASON 2",
    "OBJECT_TYPE": "PAYLOAD",
    "CLASSIFICATION_TYPE": "U",
    "INTLDES": "08032A",
    "EPOCH": "2023-08-30 17:02:27",
    "EPOCH_MICROSECONDS": "886272",
    "MEAN_MOTION": "12.87661832",
    "ECCENTRICITY": "0.0007988",
    "INCLINATION": "66.0402",
    "RA_OF_ASC_NODE": "38.7485",
    "ARG_OF_PERICENTER": "266.6963",
    "MEAN_ANOMALY": "176.0756",
    "EPHEMERIS_TYPE": "0",
    "ELEMENT_SET_NO": "999",
    "REV_AT_EPOCH": "71218",
    "BSTAR": "-0.000082196",
    "MEAN_MOTION_DOT": "-0.00000083",
    "MEAN_MOTION_DDOT": "0",
    "FILE": "3993321",
    "TLE_LINE0": "0 JASON 2",
    "TLE_LINE1": "1 33105U 08032A   23242.71004498 -.00000083  00000-0 -82196-4 0  9994",
    "TLE_LINE2": "2 33105  66.0402  38.7485 0007988 266.6963 176.0756 12.87661832712182",
    "OBJECT_ID": "2008-032A",
    "OBJECT_NUMBER": "33105",
    "SEMIMAJOR_AXIS": "7688.955",
    "PERIOD": "111.831",
    "APOGEE": "1316.961",
    "PERIGEE": "1304.678",
    "DECAYED": "0"
  },
  {
    "COMMENT": "GENERATED VIA SPACETRACK.ORG API",
    "ORIGINATOR": "18 SPCS",
    "NORAD_CAT_ID": "33105",
    "OBJECT_NAME": "JASON 2",
    "OBJECT_TYPE": "PAYLOAD",
    "CLASSIFICATION_TYPE": "U",
    "INTLDES": "08032A",
    "EPOCH": "2023-08-31 15:39:23",
    "EPOCH_MICROSECONDS": "764032",
    "MEAN_MOTION": "12.87661805",
    "ECCENTRICITY": "0.0007999",
    "INCLINATION": "66.0403",
    "RA_OF_ASC_NODE": "36.7671",
    "ARG_OF_PERICENTER": "266.6235",
    "MEAN_ANOMALY": "223.8889",
    "EPHEMERIS_TYPE": "0",
    "ELEMENT_SET_NO": "999",
    "REV_AT_EPOCH": "71230",
    "BSTAR": "-0.000086245",
    "MEAN_MOTION_DOT": "-0.00000084",
    "MEAN_MOTION_DDOT": "0",
    "FILE": "3994074",
    "TLE_LINE0": "0 JASON 2",
    "TLE_LINE1": "1 33105U 08032A   23243.65235838 -.00000084  00000-0 -86245-4 0  9992",
    "TLE_LINE2": "2 33105  66.0403  36.7671 0007999 266.6235 223.8889 12.87661805712304",
    "OBJECT_ID": "2008-032A",
    "OBJECT_NUMBER": "33105",
    "SEMIMAJOR_AXIS": "7688.955",
    "PERIOD": "111.831",
    "APOGEE": "1316.970",
    "PERIGEE": "1304.669",
    "DECAYED": "0"
  }
]